OBJECT_NAME,OBJECT_ID,EPOCH,MEAN_MOTION,ECCENTRICITY,INCLINATION,RA_OF_ASC_NODE,ARG_OF_PERICENTER,MEAN_ANOMALY,EPHEMERIS_TYPE,CLASSIFICATION_TYPE,NORAD_CAT_ID,ELEMENT_SET_NO,REV_AT_EPOCH,BSTAR,MEAN_MOTION_DOT,MEAN_MOTION_DDOT
SKYSAT-C1,2016-040C,2026-07-20T08:43:47.597376,15.36798698,.00006316,96.9554,231.2938,198.3803,161.7420,0,U,41601,999,56296,.14048123E-3,.4976E-4,0
LAPAN-A3,2016-040E,2026-07-20T14:33:51.509952,15.33297973,.00083311,97.1508,196.6619,252.2421,107.7913,0,U,41603,999,55993,.58899514E-4,.1822E-4,0
GAOFEN-3,2016-049A,2026-07-20T14:14:39.849792,14.42219059,.0001783,98.4021,208.8761,82.9340,277.2052,0,U,41727,999,52346,.25041563E-4,.39E-6,0
SKYSAT-C4,2016-058B,2026-07-20T00:25:57.652896,15.49535299,.00035559,96.9171,221.4354,111.3811,248.7822,0,U,41771,999,55055,.18874633E-3,.10322E-3,0
SKYSAT-C5,2016-058C,2026-07-20T02:30:27.849600,15.33757415,.00030674,97.0452,240.2632,148.6501,211.4926,0,U,41772,999,54879,.12169705E-3,.3899E-4,0
SKYSAT-C2,2016-058D,2026-07-20T00:30:42.511104,15.42746945,.00008112,97.0163,221.8941,320.8207,39.2982,0,U,41773,999,55011,.16309524E-3,.7045E-4,0
SKYSAT-C3,2016-058E,2026-07-20T01:32:43.850688,15.53846132,.00027191,96.8998,230.6733,127.1966,232.9537,0,U,41774,999,55121,.22690805E-3,.14503E-3,0
ALSAT-1B,2016-059C,2026-07-20T14:38:18.257856,14.72297471,.00106474,97.7760,208.9322,114.4721,245.7599,0,U,41785,999,52549,.67990526E-4,.383E-5,0
PATHFINDER 1,2016-059E,2026-07-19T23:56:12.962400,14.67696330,.00299463,97.8179,198.7949,101.1531,259.3044,0,U,41787,999,52452,.56634935E-4,.278E-5,0
SCATSAT 1,2016-059H,2026-07-20T03:33:52.367328,14.79594675,.00555459,98.1173,265.2524,140.8715,219.6533,0,U,41790,999,10646,.98240278E-4,.698E-5,0
GOKTURK 1A,2016-073A,2026-07-20T15:02:20.601312,14.62795688,.00014378,98.1202,95.7698,82.0789,278.0576,0,U,41875,999,51371,.5877965E-4,.253E-5,0
RESOURCESAT-2A,2016-074A,2026-07-20T13:44:52.440288,14.21609416,.00020993,98.7512,274.8024,16.3919,343.7325,0,U,41877,999,49904,.19404301E-4,-.2E-7,0
CARTOSAT-2D,2017-008A,2026-07-20T14:48:36.063648,15.19310163,.00063952,97.4085,260.2953,123.6358,236.5488,0,U,41948,999,52265,.1407362E-3,.2905E-4,0
SENTINEL-2B,2017-013A,2026-07-20T13:32:23.288352,14.30816369,.00012434,98.5677,275.8659,94.2750,265.8575,0,U,42063,999,48941,.58699798E-4,.11E-5,0
CARTOSAT-2E,2017-036C,2026-07-20T13:39:29.738016,15.19279754,.00038511,97.4251,260.8181,170.5745,189.5563,0,U,42767,999,50321,.16133071E-3,.3335E-4,0
FORMOSAT-5,2017-049A,2026-07-20T13:39:14.918688,14.50908695,.00109549,98.2242,276.1353,347.0788,13.0125,0,U,42920,999,47151,.18776829E-4,.3E-6,0
SENTINEL-5P,2017-064A,2026-07-20T07:55:32.738592,14.19523793,.00012011,98.7929,143.2272,93.1734,266.9580,0,U,42969,999,45426,.24690922E-4,.8E-7,0
SKYSAT-C11,2017-068A,2026-07-20T09:00:23.505984,15.59510332,.0001469,97.4390,351.7002,152.3374,207.7961,0,U,42987,999,48841,.23297769E-3,.18375E-3,0
SKYSAT-C10,2017-068B,2026-07-20T12:58:00.523776,15.35181144,.00015627,97.4544,338.7331,110.7629,249.3782,0,U,42988,999,48747,.19390494E-3,.6539E-4,0
SKYSAT-C9,2017-068C,2026-07-20T08:02:52.552608,15.42289110,.00081924,97.4466,339.7827,27.8718,332.2966,0,U,42989,999,48786,.18086968E-3,.7703E-4,0
SKYSAT-C8,2017-068D,2026-07-20T07:55:26.922144,15.37550889,.00013015,97.4562,338.4483,106.8061,253.3326,0,U,42990,999,48740,.16092254E-3,.5844E-4,0
SKYSAT-C7,2017-068E,2026-07-20T07:47:44.397888,15.37500680,.00052256,97.4573,339.4349,3.4837,356.6443,0,U,42991,999,48746,.16274514E-3,.5903E-4,0
SKYSAT-C6,2017-068F,2026-07-20T08:17:42.284256,15.34222198,.00049546,97.4611,339.2861,75.8351,284.3442,0,U,42992,999,48740,.16464627E-3,.5374E-4,0
CARTOSAT-2F,2018-004A,2026-07-20T14:26:45.204576,15.19197108,.00027626,97.4764,260.9068,124.2963,235.8534,0,U,43111,999,47240,.11293348E-3,.2308E-4,0
GAOFEN-1 02,2018-031A,2026-07-20T13:46:28.150752,14.76475959,.00015106,98.0505,264.0048,250.6840,109.4206,0,U,43259,999,44762,.45354623E-4,.264E-5,0
GAOFEN-1 03,2018-031B,2026-07-20T14:52:34.103424,14.76466785,.00019736,98.0500,263.9049,358.9631,1.1574,0,U,43260,999,44762,.55433592E-4,.334E-5,0
GAOFEN-1 04,2018-031D,2026-07-20T14:17:39.109920,14.76441911,.00009232,98.0505,264.0759,52.8911,307.2383,0,U,43262,999,44761,.62094984E-4,.38E-5,0
SENTINEL-3B,2018-039A,2026-07-20T10:21:00.733536,14.26737312,.0001258,98.6232,268.4837,118.8128,241.3179,0,U,43437,999,42886,.35094275E-4,.41E-6,0
GAOFEN-5 01,2018-043A,2026-07-20T08:31:09.205824,14.60625420,.00017859,98.4594,173.6424,20.7865,339.3407,0,U,43461,999,43653,.43466817E-4,.162E-5,0
GAOFEN-6,2018-048A,2026-07-20T14:50:27.841056,14.76389205,.00120208,98.0948,264.3331,66.4971,293.7500,0,U,43484,999,43832,.12734965E-3,.833E-5,0
