SKYSAT-C1               
1 41601U 16040C   26201.36374534  .00004976  00000+0  14048-3 0  9994
2 41601  96.9554 231.2938 0000631 198.3803 161.7420 15.36798698562963
LAPAN-A3                
1 41603U 16040E   26201.60684618  .00001822  00000+0  58900-4 0  9993
2 41603  97.1508 196.6619 0008331 252.2421 107.7913 15.33297973559935
GAOFEN-3                
1 41727U 16049A   26201.59351678  .00000039  00000+0  25042-4 0  9994
2 41727  98.4021 208.8761 0001783  82.9340 277.2052 14.42219059523466
SKYSAT-C4               
1 41771U 16058B   26201.01802839  .00010322  00000+0  18875-3 0  9991
2 41771  96.9171 221.4354 0003555 111.3811 248.7822 15.49535299550555
SKYSAT-C5               
1 41772U 16058C   26201.10448900  .00003899  00000+0  12170-3 0  9990
2 41772  97.0452 240.2632 0003067 148.6501 211.4926 15.33757415548799
SKYSAT-C2               
1 41773U 16058D   26201.02132536  .00007045  00000+0  16310-3 0  9994
2 41773  97.0163 221.8941 0000811 320.8207  39.2982 15.42746945550111
SKYSAT-C3               
1 41774U 16058E   26201.06439642  .00014503  00000+0  22691-3 0  9993
2 41774  96.8998 230.6733 0002719 127.1966 232.9537 15.53846132551212
ALSAT-1B                
1 41785U 16059C   26201.60993354  .00000383  00000+0  67991-4 0  9995
2 41785  97.7760 208.9322 0010647 114.4721 245.7599 14.72297471525497
PATHFINDER 1            
1 41787U 16059E   26200.99737225  .00000278  00000+0  56635-4 0  9997
2 41787  97.8179 198.7949 0029946 101.1531 259.3044 14.67696330524529
SCATSAT 1               
1 41790U 16059H   26201.14852277  .00000698  00000+0  98240-4 0  9998
2 41790  98.1173 265.2524 0055545 140.8715 219.6533 14.79594675106461
GOKTURK 1A              
1 41875U 16073A   26201.62662733  .00000253  00000+0  58780-4 0  9999
2 41875  98.1202  95.7698 0001437  82.0789 278.0576 14.62795688513710
RESOURCESAT-2A          
1 41877U 16074A   26201.57282917 -.00000002  00000+0  19404-4 0  9991
2 41877  98.7512 274.8024 0002099  16.3919 343.7325 14.21609416499044
CARTOSAT-2D             
1 41948U 17008A   26201.61708407  .00002905  00000+0  14074-3 0  9990
2 41948  97.4085 260.2953 0006395 123.6358 236.5488 15.19310163522655
SENTINEL-2B             
1 42063U 17013A   26201.56415843  .00000110  00000+0  58700-4 0  9999
2 42063  98.5677 275.8659 0001243  94.2750 265.8575 14.30816369489413
CARTOSAT-2E             
1 42767U 17036C   26201.56909419  .00003335  00000+0  16133-3 0  9997
2 42767  97.4251 260.8181 0003851 170.5745 189.5563 15.19279754503216
FORMOSAT-5              
1 42920U 17049A   26201.56892267  .00000030  00000+0  18777-4 0  9990
2 42920  98.2242 276.1353 0010954 347.0788  13.0125 14.50908695471516
SENTINEL-5P             
1 42969U 17064A   26201.33024003  .00000008  00000+0  24691-4 0  9997
2 42969  98.7929 143.2272 0001201  93.1734 266.9580 14.19523793454269
SKYSAT-C11              
1 42987U 17068A   26201.37527206  .00018375  00000+0  23298-3 0  9995
2 42987  97.4390 351.7002 0001469 152.3374 207.7961 15.59510332488418
SKYSAT-C10              
1 42988U 17068B   26201.54028384  .00006539  00000+0  19390-3 0  9995
2 42988  97.4544 338.7331 0001562 110.7629 249.3782 15.35181144487472
SKYSAT-C9               
1 42989U 17068C   26201.33533047  .00007703  00000+0  18087-3 0  9996
2 42989  97.4466 339.7827 0008192  27.8718 332.2966 15.42289110487869
SKYSAT-C8               
1 42990U 17068D   26201.33017271  .00005844  00000+0  16092-3 0  9992
2 42990  97.4562 338.4483 0001301 106.8061 253.3326 15.37550889487407
SKYSAT-C7               
1 42991U 17068E   26201.32481942  .00005903  00000+0  16275-3 0  9991
2 42991  97.4573 339.4349 0005225   3.4837 356.6443 15.37500680487461
SKYSAT-C6               
1 42992U 17068F   26201.34562829  .00005374  00000+0  16465-3 0  9991
2 42992  97.4611 339.2861 0004954  75.8351 284.3442 15.34222198487406
CARTOSAT-2F             
1 43111U 18004A   26201.60191209  .00002308  00000+0  11293-3 0  9993
2 43111  97.4764 260.9068 0002762 124.2963 235.8534 15.19197108472403
GAOFEN-1 02             
1 43259U 18031A   26201.57393693  .00000264  00000+0  45355-4 0  9999
2 43259  98.0505 264.0048 0001510 250.6840 109.4206 14.76475959447620
GAOFEN-1 03             
1 43260U 18031B   26201.61983916  .00000334  00000+0  55434-4 0  9996
2 43260  98.0500 263.9049 0001973 358.9631   1.1574 14.76466785447622
GAOFEN-1 04             
1 43262U 18031D   26201.59559155  .00000380  00000+0  62095-4 0  9991
2 43262  98.0505 264.0759 0000923  52.8911 307.2383 14.76441911447615
SENTINEL-3B             
1 43437U 18039A   26201.43125849  .00000041  00000+0  35094-4 0  9998
2 43437  98.6232 268.4837 0001258 118.8128 241.3179 14.26737312428867
GAOFEN-5 01             
1 43461U 18043A   26201.35496766  .00000162  00000+0  43467-4 0  9997
2 43461  98.4594 173.6424 0001785  20.7865 339.3407 14.60625420436535
GAOFEN-6                
1 43484U 18048A   26201.61837779  .00000833  00000+0  12735-3 0  9997
2 43484  98.0948 264.3331 0012020  66.4971 293.7500 14.76389205438324
